OBJECT_NAME,OBJECT_ID,EPOCH,MEAN_MOTION,ECCENTRICITY,INCLINATION,RA_OF_ASC_NODE,ARG_OF_PERICENTER,MEAN_ANOMALY,EPHEMERIS_TYPE,CLASSIFICATION_TYPE,NORAD_CAT_ID,ELEMENT_SET_NO,REV_AT_EPOCH,BSTAR,MEAN_MOTION_DOT,MEAN_MOTION_DDOT
ONEWEB-0395,2021-132G,2026-07-16T11:09:35.907552,13.11419672,.00020077,87.8885,15.2362,84.5516,275.5841,0,U,50475,999,21955,.61702276E-4,.35E-6,0
ONEWEB-0396,2021-132H,2026-07-16T14:34:33.339648,13.18686967,.00017586,87.9198,329.6054,96.5285,263.6047,0,U,50476,999,22551,.22104479E-3,.1E-5,0
ONEWEB-0397,2021-132J,2026-07-16T09:28:36.945984,13.18686643,.00016575,87.9197,329.6473,99.0611,261.0709,0,U,50477,999,22546,.11423269E-3,.58E-6,0
ONEWEB-0398,2021-132K,2026-07-16T12:13:04.890432,13.11415309,.00021669,87.8890,15.2203,88.6036,271.5341,0,U,50478,999,21945,-.62281272E-3,-.208E-5,0
ONEWEB-0399,2021-132L,2026-07-16T11:53:33.865440,13.11415133,.00015073,87.8893,15.2342,77.9023,282.2274,0,U,50479,999,21944,.89396653E-3,.33E-5,0
ONEWEB-0400,2021-132M,2026-07-16T08:57:02.850624,13.18685067,.00020492,87.9199,329.6417,96.7758,263.3608,0,U,50480,999,22545,.16483176E-3,.78E-6,0
ONEWEB-0401,2021-132N,2026-07-16T10:02:36.947616,13.18686289,.00017826,87.9201,329.6303,105.4378,254.6951,0,U,50481,999,22546,.10739123E-3,.55E-6,0
ONEWEB-0402,2021-132P,2026-07-16T14:36:58.051008,13.18688263,.00016225,87.9198,329.5810,111.2681,248.8624,0,U,50482,999,22551,.22141009E-3,.1E-5,0
ONEWEB-0403,2021-132Q,2026-07-16T09:45:37.176192,13.18686332,.00018241,87.9197,329.6458,93.9875,266.1466,0,U,50483,999,22544,.2061226E-5,.14E-6,0
ONEWEB-0404,2021-132R,2026-07-16T11:26:42.144288,13.11417581,.00018207,87.8887,15.2348,80.6494,279.4840,0,U,50484,999,21953,.11905118E-2,.435E-5,0
ONEWEB-0405,2021-132S,2026-07-16T10:05:02.410656,13.18684775,.00023753,87.9202,329.6287,96.6652,263.4750,0,U,50485,999,22584,-.51666251E-4,-.7E-7,0
ONEWEB-0406,2021-132T,2026-07-16T09:52:53.716512,13.18686244,.00017273,87.9194,329.6445,81.9811,278.1518,0,U,50486,999,22547,-.54748413E-4,-.9E-7,0
ONEWEB-0407,2021-132U,2026-07-16T09:43:09.910848,13.18686939,.00019988,87.9199,329.6394,104.1394,255.9961,0,U,50487,999,22541,-.39773145E-3,-.144E-5,0
ONEWEB-0409,2021-132V,2026-07-16T11:24:15.919200,13.11417814,.00019187,87.8892,15.2246,82.4624,277.6722,0,U,50488,999,21942,.11861009E-2,.433E-5,0
ONEWEB-0412,2021-132W,2026-07-16T09:26:11.365440,13.18686651,.00016778,87.9195,329.6493,105.5391,254.5927,0,U,50489,999,22550,.13300473E-3,.65E-6,0
ONEWEB-0413,2021-132X,2026-07-16T09:33:28.058688,13.18687645,.00018393,87.9187,329.6447,107.5112,252.6222,0,U,50490,999,22544,.69470648E-4,.4E-6,0
ONEWEB-0414,2021-132Y,2026-07-16T09:11:37.112352,13.18687518,.00017171,87.9198,329.6324,99.0491,261.0835,0,U,50491,999,22547,.17125676E-3,.8E-6,0
ONEWEB-0417,2021-132Z,2026-07-16T14:51:32.445792,13.18687240,.00018649,87.9192,329.6026,92.8535,267.2811,0,U,50492,999,22548,.14176831E-3,.69E-6,0
ONEWEB-0418,2021-132AA,2026-07-16T09:38:07.706112,13.18685717,.0001888,87.9194,329.6472,90.2250,269.9099,0,U,50493,999,22551,.96226296E-4,.51E-6,0
ONEWEB-0419,2021-132AB,2026-07-16T10:05:33.100800,13.18665740,.00020884,87.9197,329.6443,92.7474,267.3898,0,U,50494,999,22543,-.40601613E-4,-.3E-7,0
ONEWEB-0420,2021-132AC,2026-07-16T09:14:01.872960,13.18684621,.0002018,87.9190,329.6513,103.4927,256.6430,0,U,50495,999,22542,.93519918E-4,.5E-6,0
ONEWEB-0421,2021-132AD,2026-07-16T09:04:21.189792,13.18686334,.00015317,87.9192,329.6510,102.1459,257.9845,0,U,50496,999,22546,.27850147E-4,.24E-6,0
ONEWEB-0424,2021-132AE,2026-07-16T09:57:45.510912,13.18686159,.00022043,87.9198,329.6436,93.0059,267.1325,0,U,50497,999,22549,-.23019444E-3,-.78E-6,0
ONEWEB-0426,2021-132AF,2026-07-16T08:58:16.397760,13.18686417,.00013302,87.9199,329.6424,83.6564,276.4720,0,U,50498,999,22543,.10331868E-3,.54E-6,0
ONEWEB-0427,2021-132AG,2026-07-16T09:55:19.895808,13.18686365,.00018173,87.9199,329.6240,91.7274,268.4066,0,U,50499,999,22546,.15484432E-4,.19E-6,0
ONEWEB-0429,2021-132AH,2026-07-16T09:35:53.163168,13.18687812,.00019477,87.9190,329.6490,102.0611,258.0740,0,U,50500,999,22543,.17544445E-3,.82E-6,0
ONEWEB-0430,2021-132AJ,2026-07-16T09:18:53.154144,13.18688702,.00021097,87.9191,329.6497,103.1785,256.9582,0,U,50501,999,22547,.19632776E-3,.9E-6,0
ONEWEB-0432,2021-132AK,2026-07-16T14:22:13.245888,13.18687488,.00023479,87.9197,329.5945,96.9614,263.1785,0,U,50502,999,22545,.26686531E-3,.118E-5,0
ONEWEB-0440,2021-132AL,2026-07-16T09:48:02.037024,13.18687106,.00017373,87.9198,329.6439,107.3565,252.7757,0,U,50503,999,22542,.10314549E-3,.54E-6,0
ONEWEB-0450,2021-132AM,2026-07-16T15:06:18.730080,13.18686769,.00020236,87.9189,329.6021,103.1890,256.9468,0,U,50504,999,22548,.1365148E-3,.67E-6,0
