ONEWEB-0395             
1 50475U 21132G   26197.46499893  .00000035  00000+0  61702-4 0  9994
2 50475  87.8885  15.2362 0002007  84.5516 275.5841 13.11419672219553
ONEWEB-0396             
1 50476U 21132H   26197.60733032  .00000100  00000+0  22104-3 0  9992
2 50476  87.9198 329.6054 0001758  96.5285 263.6047 13.18686967225519
ONEWEB-0397             
1 50477U 21132J   26197.39487206  .00000058  00000+0  11423-3 0  9992
2 50477  87.9197 329.6473 0001657  99.0611 261.0709 13.18686643225465
ONEWEB-0398             
1 50478U 21132K   26197.50908438 -.00000208  00000+0 -62281-3 0  9998
2 50478  87.8890  15.2203 0002166  88.6036 271.5341 13.11415309219457
ONEWEB-0399             
1 50479U 21132L   26197.49553085  .00000330  00000+0  89397-3 0  9992
2 50479  87.8893  15.2342 0001507  77.9023 282.2274 13.11415133219448
ONEWEB-0400             
1 50480U 21132M   26197.37294966  .00000078  00000+0  16483-3 0  9996
2 50480  87.9199 329.6417 0002049  96.7758 263.3608 13.18685067225452
ONEWEB-0401             
1 50481U 21132N   26197.41848319  .00000055  00000+0  10739-3 0  9992
2 50481  87.9201 329.6303 0001782 105.4378 254.6951 13.18686289225462
ONEWEB-0402             
1 50482U 21132P   26197.60900522  .00000100  00000+0  22141-3 0  9990
2 50482  87.9198 329.5810 0001622 111.2681 248.8624 13.18688263225517
ONEWEB-0403             
1 50483U 21132Q   26197.40668028  .00000014  00000+0  20612-5 0  9998
2 50483  87.9197 329.6458 0001824  93.9875 266.1466 13.18686332225445
ONEWEB-0404             
1 50484U 21132R   26197.47687667  .00000435  00000+0  11905-2 0  9995
2 50484  87.8887  15.2348 0001820  80.6494 279.4840 13.11417581219530
ONEWEB-0405             
1 50485U 21132S   26197.42016679 -.00000007  00000+0 -51666-4 0  9997
2 50485  87.9202 329.6287 0002375  96.6652 263.4750 13.18684775225848
ONEWEB-0406             
1 50486U 21132T   26197.41173283 -.00000009  00000+0 -54748-4 0  9998
2 50486  87.9194 329.6445 0001727  81.9811 278.1518 13.18686244225476
ONEWEB-0407             
1 50487U 21132U   26197.40497582 -.00000144  00000+0 -39773-3 0  9999
2 50487  87.9199 329.6394 0001998 104.1394 255.9961 13.18686939225419
ONEWEB-0409             
1 50488U 21132V   26197.47518425  .00000433  00000+0  11861-2 0  9993
2 50488  87.8892  15.2246 0001918  82.4624 277.6722 13.11417814219426
ONEWEB-0412             
1 50489U 21132W   26197.39318710  .00000065  00000+0  13300-3 0  9992
2 50489  87.9195 329.6493 0001677 105.5391 254.5927 13.18686651225501
ONEWEB-0413             
1 50490U 21132X   26197.39824142  .00000040  00000+0  69471-4 0  9999
2 50490  87.9187 329.6447 0001839 107.5112 252.6222 13.18687645225440
ONEWEB-0414             
1 50491U 21132Y   26197.38306843  .00000080  00000+0  17126-3 0  9995
2 50491  87.9198 329.6324 0001717  99.0491 261.0835 13.18687518225473
ONEWEB-0417             
1 50492U 21132Z   26197.61912553  .00000069  00000+0  14177-3 0  9993
2 50492  87.9192 329.6026 0001864  92.8535 267.2811 13.18687240225485
ONEWEB-0418             
1 50493U 21132AA  26197.40147808  .00000051  00000+0  96226-4 0  9991
2 50493  87.9194 329.6472 0001888  90.2250 269.9099 13.18685717225513
ONEWEB-0419             
1 50494U 21132AB  26197.42052200 -.00000003  00000+0 -40602-4 0  9991
2 50494  87.9197 329.6443 0002088  92.7474 267.3898 13.18665740225437
ONEWEB-0420             
1 50495U 21132AC  26197.38474390  .00000050  00000+0  93520-4 0  9992
2 50495  87.9190 329.6513 0002018 103.4927 256.6430 13.18684621225426
ONEWEB-0421             
1 50496U 21132AD  26197.37802303  .00000024  00000+0  27850-4 0  9995
2 50496  87.9192 329.6510 0001531 102.1459 257.9845 13.18686334225462
ONEWEB-0424             
1 50497U 21132AE  26197.41511008 -.00000078  00000+0 -23019-3 0  9993
2 50497  87.9198 329.6436 0002204  93.0059 267.1325 13.18686159225492
ONEWEB-0426             
1 50498U 21132AF  26197.37380090  .00000054  00000+0  10332-3 0  9990
2 50498  87.9199 329.6424 0001330  83.6564 276.4720 13.18686417225439
ONEWEB-0427             
1 50499U 21132AG  26197.41342472  .00000019  00000+0  15484-4 0  9993
2 50499  87.9199 329.6240 0001817  91.7274 268.4066 13.18686365225463
ONEWEB-0429             
1 50500U 21132AH  26197.39992087  .00000082  00000+0  17544-3 0  9994
2 50500  87.9190 329.6490 0001947 102.0611 258.0740 13.18687812225438
ONEWEB-0430             
1 50501U 21132AJ  26197.38811521  .00000090  00000+0  19633-3 0  9997
2 50501  87.9191 329.6497 0002109 103.1785 256.9582 13.18688702225476
ONEWEB-0432             
1 50502U 21132AK  26197.59876442  .00000118  00000+0  26687-3 0  9992
2 50502  87.9197 329.5945 0002347  96.9614 263.1785 13.18687488225457
ONEWEB-0440             
1 50503U 21132AL  26197.40835691  .00000054  00000+0  10315-3 0  9994
2 50503  87.9198 329.6439 0001737 107.3565 252.7757 13.18687106225429
ONEWEB-0450             
1 50504U 21132AM  26197.62938345  .00000067  00000+0  13651-3 0  9999
2 50504  87.9189 329.6021 0002023 103.1890 256.9468 13.18686769225486
